[{"OBJECT_NAME":"FENGYUN 1C DEB","OBJECT_ID":"1999-025EYF","EPOCH":"2026-03-06T08:26:12.554880","MEAN_MOTION":14.55042471,"ECCENTRICITY":0.00361126,"INCLINATION":98.9201,"RA_OF_ASC_NODE":203.7545,"ARG_OF_PERICENTER":275.3155,"MEAN_ANOMALY":84.392,"EPHEMERIS_TYPE":0,"CLASSIFICATION_TYPE":"U","NORAD_CAT_ID":41828,"ELEMENT_SET_NO":999,"REV_AT_EPOCH":48678,"BSTAR":0.0049857924,"MEAN_MOTION_DOT":0.00021693,"MEAN_MOTION_DDOT":0},{"OBJECT_NAME":"FENGYUN 1C DEB","OBJECT_ID":"1999-025EYH","EPOCH":"2026-03-05T03:46:46.163136","MEAN_MOTION":14.27178205,"ECCENTRICITY":0.00505949,"INCLINATION":98.7436,"RA_OF_ASC_NODE":141.1306,"ARG_OF_PERICENTER":337.8738,"MEAN_ANOMALY":22.0259,"EPHEMERIS_TYPE":0,"CLASSIFICATION_TYPE":"U","NORAD_CAT_ID":41830,"ELEMENT_SET_NO":999,"REV_AT_EPOCH":48449,"BSTAR":0.0015735603,"MEAN_MOTION_DOT":3.851e-5,"MEAN_MOTION_DDOT":0},{"OBJECT_NAME":"FENGYUN 1C DEB","OBJECT_ID":"1999-025EYJ","EPOCH":"2026-03-06T03:30:09.616896","MEAN_MOTION":14.2519823,"ECCENTRICITY":0.00527978,"INCLINATION":98.724,"RA_OF_ASC_NODE":136.5509,"ARG_OF_PERICENTER":340.4629,"MEAN_ANOMALY":19.4526,"EPHEMERIS_TYPE":0,"CLASSIFICATION_TYPE":"U","NORAD_CAT_ID":41831,"ELEMENT_SET_NO":999,"REV_AT_EPOCH":48447,"BSTAR":0.0012913333,"MEAN_MOTION_DOT":3.035e-5,"MEAN_MOTION_DDOT":0},{"OBJECT_NAME":"FENGYUN 1C DEB","OBJECT_ID":"1999-025EYK","EPOCH":"2026-03-06T03:41:26.529792","MEAN_MOTION":14.24894629,"ECCENTRICITY":0.00520631,"INCLINATION":98.7185,"RA_OF_ASC_NODE":133.6332,"ARG_OF_PERICENTER":345.1383,"MEAN_ANOMALY":14.8263,"EPHEMERIS_TYPE":0,"CLASSIFICATION_TYPE":"U","NORAD_CAT_ID":41832,"ELEMENT_SET_NO":999,"REV_AT_EPOCH":48538,"BSTAR":0.0013053718,"MEAN_MOTION_DOT":3.049e-5,"MEAN_MOTION_DDOT":0},{"OBJECT_NAME":"FENGYUN 1C DEB","OBJECT_ID":"1999-025EYM","EPOCH":"2026-03-03T15:19:44.792832","MEAN_MOTION":14.24452641,"ECCENTRICITY":0.0051661,"INCLINATION":98.7252,"RA_OF_ASC_NODE":131.5078,"ARG_OF_PERICENTER":354.8483,"MEAN_ANOMALY":5.2158,"EPHEMERIS_TYPE":0,"CLASSIFICATION_TYPE":"U","NORAD_CAT_ID":43213,"ELEMENT_SET_NO":999,"REV_AT_EPOCH":41524,"BSTAR":0.0014463,"MEAN_MOTION_DOT":3.353e-5,"MEAN_MOTION_DDOT":0},{"OBJECT_NAME":"FENGYUN 1C DEB","OBJECT_ID":"1999-025EYN","EPOCH":"2026-03-06T03:58:01.145856","MEAN_MOTION":14.24760323,"ECCENTRICITY":0.00518839,"INCLINATION":98.7267,"RA_OF_ASC_NODE":134.382,"ARG_OF_PERICENTER":346.5518,"MEAN_ANOMALY":13.4276,"EPHEMERIS_TYPE":0,"CLASSIFICATION_TYPE":"U","NORAD_CAT_ID":43214,"ELEMENT_SET_NO":999,"REV_AT_EPOCH":41591,"BSTAR":0.001291219,"MEAN_MOTION_DOT":3.007e-5,"MEAN_MOTION_DDOT":0},{"OBJECT_NAME":"FENGYUN 1C DEB","OBJECT_ID":"1999-025EYQ","EPOCH":"2026-03-05T04:16:46.566336","MEAN_MOTION":14.24139715,"ECCENTRICITY":0.0077167,"INCLINATION":99.0461,"RA_OF_ASC_NODE":151.5356,"ARG_OF_PERICENTER":139.4343,"MEAN_ANOMALY":221.262,"EPHEMERIS_TYPE":0,"CLASSIFICATION_TYPE":"U","NORAD_CAT_ID":43359,"ELEMENT_SET_NO":999,"REV_AT_EPOCH":48922,"BSTAR":0.0027472583,"MEAN_MOTION_DOT":6.482e-5,"MEAN_MOTION_DDOT":0},{"OBJECT_NAME":"FENGYUN 1C DEB","OBJECT_ID":"1999-025EYS","EPOCH":"2026-03-06T15:08:01.989312","MEAN_MOTION":14.2515782,"ECCENTRICITY":0.00516615,"INCLINATION":98.7277,"RA_OF_ASC_NODE":136.8297,"ARG_OF_PERICENTER":343.9473,"MEAN_ANOMALY":16.0068,"EPHEMERIS_TYPE":0,"CLASSIFICATION_TYPE":"U","NORAD_CAT_ID":45527,"ELEMENT_SET_NO":999,"REV_AT_EPOCH":40774,"BSTAR":0.0015583998,"MEAN_MOTION_DOT":3.667e-5,"MEAN_MOTION_DDOT":0},{"OBJECT_NAME":"FENGYUN 1C DEB","OBJECT_ID":"1999-025EYU","EPOCH":"2026-03-03T04:39:48.479040","MEAN_MOTION":14.22437338,"ECCENTRICITY":0.01195819,"INCLINATION":98.5342,"RA_OF_ASC_NODE":51.5745,"ARG_OF_PERICENTER":172.1063,"MEAN_ANOMALY":188.2035,"EPHEMERIS_TYPE":0,"CLASSIFICATION_TYPE":"U","NORAD_CAT_ID":46439,"ELEMENT_SET_NO":999,"REV_AT_EPOCH":61507,"BSTAR":0.00025744914,"MEAN_MOTION_DOT":5.75e-6,"MEAN_MOTION_DDOT":0},{"OBJECT_NAME":"FENGYUN 1C DEB","OBJECT_ID":"1999-025EYV","EPOCH":"2026-02-24T08:11:48.058080","MEAN_MOTION":14.20458008,"ECCENTRICITY":0.01738281,"INCLINATION":98.585,"RA_OF_ASC_NODE":85.2609,"ARG_OF_PERICENTER":282.3971,"MEAN_ANOMALY":144.0869,"EPHEMERIS_TYPE":0,"CLASSIFICATION_TYPE":"U","NORAD_CAT_ID":46440,"ELEMENT_SET_NO":999,"REV_AT_EPOCH":63414,"BSTAR":0.00028158614,"MEAN_MOTION_DOT":6.58e-6,"MEAN_MOTION_DDOT":0},{"OBJECT_NAME":"FENGYUN 1C DEB","OBJECT_ID":"1999-025EYY","EPOCH":"2026-03-06T10:11:11.078592","MEAN_MOTION":14.11487517,"ECCENTRICITY":0.00994769,"INCLINATION":99.205,"RA_OF_ASC_NODE":139.4527,"ARG_OF_PERICENTER":122.8674,"MEAN_ANOMALY":299.5752,"EPHEMERIS_TYPE":0,"CLASSIFICATION_TYPE":"U","NORAD_CAT_ID":46443,"ELEMENT_SET_NO":999,"REV_AT_EPOCH":60776,"BSTAR":0.0020937955,"MEAN_MOTION_DOT":3.933e-5,"MEAN_MOTION_DDOT":0},{"OBJECT_NAME":"FENGYUN 1C DEB","OBJECT_ID":"1999-025EYZ","EPOCH":"2026-02-18T20:00:38.280096","MEAN_MOTION":14.27407016,"ECCENTRICITY":0.00829274,"INCLINATION":98.5156,"RA_OF_ASC_NODE":55.0463,"ARG_OF_PERICENTER":312.7465,"MEAN_ANOMALY":169.0629,"EPHEMERIS_TYPE":0,"CLASSIFICATION_TYPE":"U","NORAD_CAT_ID":46444,"ELEMENT_SET_NO":999,"REV_AT_EPOCH":63553,"BSTAR":0.00055496567,"MEAN_MOTION_DOT":1.368e-5,"MEAN_MOTION_DDOT":0}]
