FENGYUN 1C DEB          
1 41828U 99025EYF 26065.35153420  .00021693  00000+0  49858-2 0  9996
2 41828  98.9201 203.7545 0036112 275.3155  84.3920 14.55042471486783
FENGYUN 1C DEB          
1 41830U 99025EYH 26064.15747874  .00003851  00000+0  15736-2 0  9992
2 41830  98.7436 141.1306 0050594 337.8738  22.0259 14.27178205484499
FENGYUN 1C DEB          
1 41831U 99025EYJ 26065.14594464  .00003035  00000+0  12913-2 0  9996
2 41831  98.7240 136.5509 0052797 340.4629  19.4526 14.25198230484475
FENGYUN 1C DEB          
1 41832U 99025EYK 26065.15377928  .00003049  00000+0  13054-2 0  9994
2 41832  98.7185 133.6332 0052063 345.1383  14.8263 14.24894629485383
FENGYUN 1C DEB          
1 43213U 99025EYM 26062.63871288  .00003353  00000+0  14463-2 0  9990
2 43213  98.7252 131.5078 0051661 354.8483   5.2158 14.24452641415247
FENGYUN 1C DEB          
1 43214U 99025EYN 26065.16529104  .00003007  00000+0  12912-2 0  9992
2 43214  98.7267 134.3820 0051883 346.5518  13.4276 14.24760323415918
FENGYUN 1C DEB          
1 43359U 99025EYQ 26064.17831674  .00006482  00000+0  27473-2 0  9998
2 43359  99.0461 151.5356 0077167 139.4343 221.2620 14.24139715489223
FENGYUN 1C DEB          
1 45527U 99025EYS 26065.63057858  .00003667  00000+0  15584-2 0  9995
2 45527  98.7277 136.8297 0051661 343.9473  16.0068 14.25157820407741
FENGYUN 1C DEB          
1 46439U 99025EYU 26062.19431110  .00000575  00000+0  25745-3 0  9999
2 46439  98.5342  51.5745 0119581 172.1063 188.2035 14.22437338615074
FENGYUN 1C DEB          
1 46440U 99025EYV 26055.34152845  .00000658  00000+0  28159-3 0  9999
2 46440  98.5850  85.2609 0173828 282.3971 144.0869 14.20458008634148
FENGYUN 1C DEB          
1 46443U 99025EYY 26065.42443378  .00003933  00000+0  20938-2 0  9991
2 46443  99.2050 139.4527 0099476 122.8674 299.5752 14.11487517607768
FENGYUN 1C DEB          
1 46444U 99025EYZ 26049.83377639  .00001368  00000+0  55497-3 0  9994
2 46444  98.5156  55.0463 0082927 312.7465 169.0629 14.27407016635534
